0 METEOR 2-8 DEB
1 36857U 82025AU  13275.84677412  .00001629  00000-0  10273-2 0   672
2 36857 082.5340 108.2884 0036502 049.7306 310.8383 14.03337626461629
0 METEOR 2-8 DEB
1 36857U 82025AU  13288.75162391  .00003026  00000-0  19152-2 0   680
2 36857 082.5323 097.6861 0036428 011.5893 348.6108 14.03406250463436
0 METEOR 2-8 DEB
1 36857U 82025AU  13289.74976306  .00002379  00000-0  15033-2 0   694
2 36857 082.5265 096.8513 0036744 009.0059 351.1730 14.03406068463575
